IRIDIUM 7               
1 24793U 97020B   24322.80169084  .00000763  00000+0  25825-3 0  9992
2 24793  86.3941 265.4464 0002636  86.5182 273.6316 14.35603398441566
IRIDIUM 5               
1 24795U 97020D   24322.89075846  .00005986  00000+0  52993-3 0  9993
2 24795  86.3936 180.8612 0115316 173.9809 186.2837 14.91023688453946
IRIDIUM 4               
1 24796U 97020E   24322.77942067  .00000751  00000+0  24920-3 0  9993
2 24796  86.3941 262.4692 0002385  88.7359 271.4111 14.36518405442116
IRIDIUM 914             
1 24836U 97030A   24322.60380975  .00001007  00000+0  31087-3 0  9992
2 24836  86.3908 271.7869 0002358 128.0904 232.0508 14.40458949576669
IRIDIUM 16              
1 24841U 97030F   24322.87430868  .00000857  00000+0  27525-3 0  9998
2 24841  86.3990 294.0675 0004162  64.8444 295.3185 14.38326669436624
IRIDIUM 911             
1 24842U 97030G   24322.84586084  .00001173  00000+0  31584-3 0  9990
2 24842  86.4415 293.0640 0016696  83.3363 276.9740 14.47103792444519
IRIDIUM 17              
1 24870U 97034B   24322.73077814  .00000804  00000+0  26260-3 0  9994
2 24870  86.3933 323.7053 0002485  50.9688 309.1731 14.37429616433202
IRIDIUM 920             
1 24871U 97034C   24322.83081512  .00000853  00000+0  25830-3 0  9992
2 24871  86.3932 303.3682 0013649  64.2839 295.9768 14.41130397436131
